KUZGTU 1 (RS47S)        
1 57217U 23091AV  26168.94981040  .00010129  00000+0  35190-3 0  9998
2 57217  97.5061 233.4376 0012286  95.6188 264.6453 15.29877570164491
SONATE-2                
1 59112U 24043Q   26168.39510587  .00033446  00000+0  43430-3 0  9998
2 59112  97.5537 318.8032 0007054 194.9241 165.1808 15.58731492127922
MESAT1                  
1 60209U 24125G   26168.55435910  .00045262  00000+0  49310-3 0  9994
2 60209  97.2283  26.0449 0009608 202.4554 157.6286 15.63233272109627
OOV-CUBE (TUBSAT-30)    
1 60240U 24128F   26168.65432347  .00001478  00000+0  12352-3 0  9991
2 60240  61.9933 223.9441 0044583 133.8615 226.6174 15.02775098106189
COLIBRI-S (RS67S)       
1 61746U 24199M   26168.90230802  .00017799  00000+0  34478-3 0  9997
2 61746  97.2987  42.7627 0006260 275.4304  84.6232 15.47749797137528
HORS 3 (RS81S)          
1 61753U 24199U   26168.92605948  .00032335  00000+0  48216-3 0  9992
2 61753  97.2971  44.7811 0003780 273.1724  86.9097 15.55017602137673
HORS 4 (RS82S)          
1 61754U 24199V   26168.88442109  .00042007  00000+0  52474-3 0  9994
2 61754  97.2915  45.9449 0003135 253.7547 106.3365 15.59735156137752
SIT-2086                
1 61764U 24199AF  26168.90520108  .00030769  00000+0  49138-3 0  9999
2 61764  97.2926  45.2338 0004661 246.2385 113.8380 15.53128842134543
HYPERVIEW 1G (RS66S)    
1 61772U 24199AP  26168.69760617  .00118174  00000+0  75647-3 0  9996
2 61772  97.2862  48.4424 0003879 216.3967 143.7035 15.75954968134758
ALTAIR (RS65S)          
1 61779U 24199AW  26168.89323682  .00006631  00000+0  18494-3 0  9993
2 61779  97.3022  38.2393 0011065 308.3414  51.6835 15.37031556137228
ASRTU-1 (AO-123)        
1 61781U 24199AY  26168.88175713  .00006373  00000+0  18556-3 0  9997
2 61781  97.2994  37.5462 0012248 311.3349  48.6840 15.35684114134032
SAMSAT-IONOSPHERE (RS7*)
1 61784U 24199BB  26168.89456765  .00039677  00000+0  53537-3 0  9991
2 61784  97.2939  44.7984 0005906 272.5823  87.4756 15.57677779137674
RTU MIREA 1 (RS51S)     
1 61785U 24199BC  26168.91740896  .00048082  00000+0  56815-3 0  9998
2 61785  97.2926  45.6574 0005559 263.4636  96.5989 15.61155808134586
TEVEL2-4                
1 63213U 25052D   26167.98658141  .00016047  00000+0  48034-3 0  9992
2 63213  97.3904  64.3780 0004859 103.4475 256.7310 15.34605865 70089
TEVEL2-5                
1 63214U 25052E   26168.65918476  .00015137  00000+0  45551-3 0  9998
2 63214  97.3899  64.9994 0004809 103.5179 256.6600 15.34451661 70188
TEVEL2-6                
1 63215U 25052F   26168.67152684  .00015165  00000+0  45683-3 0  9999
2 63215  97.3904  64.9959 0004736 104.1466 256.0303 15.34416475 70180
TEVEL2-1                
1 63217U 25052H   26167.98311732  .00015254  00000+0  46759-3 0  9999
2 63217  97.3878  63.9315 0004776 114.0246 246.1497 15.33862790 70062
TEVEL2-3                
1 63218U 25052J   26168.95628033  .00014612  00000+0  44689-3 0  9990
2 63218  97.3877  64.9266 0004765 112.2004 247.9744 15.33945256 70218
TEVEL2-2                
1 63219U 25052K   26167.65724747  .00014434  00000+0  44263-3 0  9996
2 63219  97.3883  63.6082 0004715 115.1533 245.0199 15.33861744 70012
TEVEL2-9                
1 63237U 25052AD  26168.94039639  .00013118  00000+0  42755-3 0  9990
2 63237  97.3937  64.2647 0007861 128.7161 231.4784 15.31916427 70148
TEVEL2-7                
1 63238U 25052AE  26168.65478596  .00013228  00000+0  43519-3 0  9999
2 63238  97.3940  63.8957 0007914 129.8998 230.2940 15.31613826 70093
TEVEL2-8                
1 63239U 25052AF  26168.66304258  .00012825  00000+0  42222-3 0  9996
2 63239  97.3941  63.8807 0007934 130.2742 229.9195 15.31597535 70099
INNOSAT 16 (RS92S7)     
1 64878U 25155C   26168.92038912  .00004959  00000+0  19862-3 0  9993
2 64878  97.4566 136.0458 0010645 172.7895 187.3498 15.25463720 80782
GEOSCAN 6 (RS92S6)      
1 64879U 25155D   26168.90091449  .00008472  00000+0  29259-3 0  9991
2 64879  97.4560 137.4555 0008442 160.2389 199.9180 15.30163954 80871
GEOSCAN 1 (RS92S1)      
1 64880U 25155E   26168.90308622  .00008924  00000+0  30246-3 0  9997
2 64880  97.4556 137.6063 0008371 159.9253 200.2318 15.30759479 80883
239ALFEROV (RS61S)      
1 64881U 25155F   26168.93698253  .00012064  00000+0  38092-3 0  9990
2 64881  97.4557 138.2043 0008137 156.7224 203.4388 15.32956751 80924
GEOSCAN 2 (RS92S2)      
1 64890U 25155Q   26168.89664409  .00008921  00000+0  29983-3 0  9997
2 64890  97.4555 137.7526 0008170 147.3671 212.8076 15.31030827 80891
GEOSCAN 5 (RS92S5)      
1 64891U 25155R   26168.92585193  .00012200  00000+0  38147-3 0  9991
2 64891  97.4550 138.3308 0006864 160.3401 199.8107 15.33274493 80931
GEOSCAN 4 (RS92S4)      
1 64892U 25155S   26168.90996996  .00012023  00000+0  37415-3 0  9997
2 64892  97.4553 138.3635 0006926 159.8818 200.2699 15.33429393 80936
GEOSCAN 3 (RS92S3)      
1 64893U 25155T   26168.90979130  .00015182  00000+0  44293-3 0  9990
2 64893  97.4541 138.7950 0006891 158.2854 201.8683 15.35417722 80960
