OBJECT_NAME,OBJECT_ID,EPOCH,MEAN_MOTION,ECCENTRICITY,INCLINATION,RA_OF_ASC_NODE,ARG_OF_PERICENTER,MEAN_ANOMALY,EPHEMERIS_TYPE,CLASSIFICATION_TYPE,NORAD_CAT_ID,ELEMENT_SET_NO,REV_AT_EPOCH,BSTAR,MEAN_MOTION_DOT,MEAN_MOTION_DDOT
KUZGTU 1 (RS47S),2023-091AV,2026-06-17T22:47:43.618560,15.29877570,.00122861,97.5061,233.4376,95.6188,264.6453,0,U,57217,999,16449,.35190494E-3,.10129E-3,0
SONATE-2,2024-043Q,2026-06-17T09:28:57.147168,15.58731492,.00070546,97.5537,318.8032,194.9241,165.1808,0,U,59112,999,12792,.43430326E-3,.33446E-3,0
MESAT1,2024-125G,2026-06-17T13:18:16.626240,15.63233272,.0009608,97.2283,26.0449,202.4554,157.6286,0,U,60209,999,10962,.4931E-3,.45262E-3,0
OOV-CUBE (TUBSAT-30),2024-128F,2026-06-17T15:42:13.547808,15.02775098,.00445831,61.9933,223.9441,133.8615,226.6174,0,U,60240,999,10618,.12351979E-3,.1478E-4,0
COLIBRI-S (RS67S),2024-199M,2026-06-17T21:39:19.412928,15.47749797,.00062603,97.2987,42.7627,275.4304,84.6232,0,U,61746,999,13752,.34478255E-3,.17799E-3,0
HORS 3 (RS81S),2024-199U,2026-06-17T22:13:31.539072,15.55017602,.00037803,97.2971,44.7811,273.1724,86.9097,0,U,61753,999,13767,.48215808E-3,.32335E-3,0
HORS 4 (RS82S),2024-199V,2026-06-17T21:13:33.982176,15.59735156,.00031351,97.2915,45.9449,253.7547,106.3365,0,U,61754,999,13775,.52474183E-3,.42007E-3,0
SIT-2086,2024-199AF,2026-06-17T21:43:29.373312,15.53128842,.0004661,97.2926,45.2338,246.2385,113.8380,0,U,61764,999,13454,.49138129E-3,.30769E-3,0
HYPERVIEW 1G (RS66S),2024-199AP,2026-06-17T16:44:33.173088,15.75954968,.0003879,97.2862,48.4424,216.3967,143.7035,0,U,61772,999,13475,.75647296E-3,.118174E-2,0
ALTAIR (RS65S),2024-199AW,2026-06-17T21:26:15.661248,15.37031556,.00110652,97.3022,38.2393,308.3414,51.6835,0,U,61779,999,13722,.18493631E-3,.6631E-4,0
ASRTU-1 (AO-123),2024-199AY,2026-06-17T21:09:43.816032,15.35684114,.00122488,97.2994,37.5462,311.3349,48.6840,0,U,61781,999,13403,.18556343E-3,.6373E-4,0
SAMSAT-IONOSPHERE (RS75S),2024-199BB,2026-06-17T21:28:10.644960,15.57677779,.00059067,97.2939,44.7984,272.5823,87.4756,0,U,61784,999,13767,.53536578E-3,.39677E-3,0
RTU MIREA 1 (RS51S),2024-199BC,2026-06-17T22:01:04.134144,15.61155808,.00055595,97.2926,45.6574,263.4636,96.5989,0,U,61785,999,13458,.56814908E-3,.48082E-3,0
TEVEL2-4,2025-052D,2026-06-16T23:40:40.633824,15.34605865,.00048596,97.3904,64.3780,103.4475,256.7310,0,U,63213,999,7008,.48033828E-3,.16047E-3,0
TEVEL2-5,2025-052E,2026-06-17T15:49:13.563264,15.34451661,.00048099,97.3899,64.9994,103.5179,256.6600,0,U,63214,999,7018,.45550682E-3,.15137E-3,0
TEVEL2-6,2025-052F,2026-06-17T16:06:59.918976,15.34416475,.00047369,97.3904,64.9959,104.1466,256.0303,0,U,63215,999,7018,.45683142E-3,.15165E-3,0
TEVEL2-1,2025-052H,2026-06-16T23:35:41.336448,15.33862790,.0004776,97.3878,63.9315,114.0246,246.1497,0,U,63217,999,7006,.46759393E-3,.15254E-3,0
TEVEL2-3,2025-052J,2026-06-17T22:57:02.620512,15.33945256,.00047651,97.3877,64.9266,112.2004,247.9744,0,U,63218,999,7021,.44688948E-3,.14612E-3,0
TEVEL2-2,2025-052K,2026-06-16T15:46:26.181408,15.33861744,.00047153,97.3883,63.6082,115.1533,245.0199,0,U,63219,999,7001,.44263378E-3,.14434E-3,0
TEVEL2-9,2025-052AD,2026-06-17T22:34:10.248096,15.31916427,.00078617,97.3937,64.2647,128.7161,231.4784,0,U,63237,999,7014,.4275511E-3,.13118E-3,0
TEVEL2-7,2025-052AE,2026-06-17T15:42:53.506944,15.31613826,.00079147,97.3940,63.8957,129.8998,230.2940,0,U,63238,999,7009,.43518516E-3,.13228E-3,0
TEVEL2-8,2025-052AF,2026-06-17T15:54:46.878912,15.31597535,.00079343,97.3941,63.8807,130.2742,229.9195,0,U,63239,999,7009,.42222049E-3,.12825E-3,0
INNOSAT 16 (RS92S7),2025-155C,2026-06-17T22:05:21.619968,15.25463720,.00106454,97.4566,136.0458,172.7895,187.3498,0,U,64878,999,8078,.19861782E-3,.4959E-4,0
GEOSCAN 6 (RS92S6),2025-155D,2026-06-17T21:37:19.011936,15.30163954,.00084422,97.4560,137.4555,160.2389,199.9180,0,U,64879,999,8087,.29259203E-3,.8472E-4,0
GEOSCAN 1 (RS92S1),2025-155E,2026-06-17T21:40:26.649408,15.30759479,.00083713,97.4556,137.6063,159.9253,200.2318,0,U,64880,999,8088,.30246445E-3,.8924E-4,0
239ALFEROV (RS61S),2025-155F,2026-06-17T22:29:15.290592,15.32956751,.00081372,97.4557,138.2043,156.7224,203.4388,0,U,64881,999,8092,.38091541E-3,.12064E-3,0
GEOSCAN 2 (RS92S2),2025-155Q,2026-06-17T21:31:10.049376,15.31030827,.00081706,97.4555,137.7526,147.3671,212.8076,0,U,64890,999,8089,.29982875E-3,.8921E-4,0
GEOSCAN 5 (RS92S5),2025-155R,2026-06-17T22:13:13.606752,15.33274493,.0006864,97.4550,138.3308,160.3401,199.8107,0,U,64891,999,8093,.38147011E-3,.122E-3,0
GEOSCAN 4 (RS92S4),2025-155S,2026-06-17T21:50:21.404544,15.33429393,.00069267,97.4553,138.3635,159.8818,200.2699,0,U,64892,999,8093,.37414748E-3,.12023E-3,0
GEOSCAN 3 (RS92S3),2025-155T,2026-06-17T21:50:05.968320,15.35417722,.00068911,97.4541,138.7950,158.2854,201.8683,0,U,64893,999,8096,.44293265E-3,.15182E-3,0
